QIANFAN-9               
1 60387U 24140J   25356.46094598  .00000110  00000+0  15093-3 0  9993
2 60387  88.9775 298.3313 0016203 162.9340 197.2360 13.50983274 68640
QIANFAN-10              
1 60388U 24140K   25356.53919335  .00000104  00000+0  14185-3 0  9991
2 60388  88.9785 297.6713 0015423 140.0592 220.1696 13.50983617 68781
QIANFAN-11              
1 60389U 24140L   25356.57630458  .00000112  00000+0  15523-3 0  9998
2 60389  88.9711 298.2474 0014284 161.3920 198.7756 13.50979912 68440
QIANFAN-12              
1 60390U 24140M   25356.52272527  .00000096  00000+0  13000-3 0  9993
2 60390  88.9754 298.3005 0012822 169.0790 191.0642 13.50980774 68567
QIANFAN-13              
1 60391U 24140N   25356.56798205  .00000102  00000+0  13979-3 0  9997
2 60391  88.9766 298.3970 0012562 171.5549 188.5816 13.50981277 68599
QIANFAN-14              
1 60392U 24140P   25356.59258580  .00000095  00000+0  12834-3 0  9998
2 60392  88.9745 298.2900 0016219 173.2937 186.8434 13.50980757 68603
QIANFAN-15              
1 60393U 24140Q   25356.52681396  .00000082  00000+0  10850-3 0  9999
2 60393  88.9768 298.2556 0012512 157.5199 202.6503 13.50979497 68583
QIANFAN-16              
1 60394U 24140R   25356.58861249  .00000103  00000+0  14093-3 0  9990
2 60394  88.9771 298.3696 0014052 176.3722 183.7533 13.50984837 68504
